satname,norad_id,inclination_deg,eccentricity,mean_motion_rev_per_day,perigee_km,apogee_km,l1,l2
STARLINK-1008,44714,53.1497,0.0004951,15.53846326,402.1497092798172,408.8668748480186,1 44714U 19074B   26199.21988884  .00040893  00000+0  62879-3 0  9994,2 44714  53.1497 279.7086 0004951 331.5232  28.5508 15.53846326369030
STARLINK-1012,44718,53.1533,0.000552,15.5431627,400.39705924912414,407.8846940249323,1 44718U 19074F   26199.85197068  .00040588  00000+0  61354-3 0  9992,2 44718  53.1533 276.8676 0005520 339.4507  20.6281 15.54316270369125
STARLINK-1017,44723,53.0472,8.57e-05,15.34398241,462.1222078741557,463.29472878742763,1 44723U 19074L   26199.49141177  .00019422  00000+0  58447-3 0  9990,2 44723  53.0472 282.9606 0000857  93.3803 266.7296 15.34398241368984
STARLINK-1020,44725,53.155,0.0004589,15.60306588,383.66635193297316,389.87518428254225,1 44725U 19074N   26199.59871395  .00049359  00000+0  59503-3 0  9991,2 44725  53.1550 300.4941 0004589 307.4586  52.6010 15.60306588368758
STARLINK-1036,44741,53.0403,0.0003344,15.77799774,334.4304493521586,338.92131620816144,1 44741U 19074AE  26199.49107366  .00049217  00000+0  28883-3 0  9998,2 44741  53.0403 264.6641 0003344  21.0381 339.0776 15.77799774369236
STARLINK-1039,44744,53.0583,0.0001172,15.313889,470.8647280391024,472.47032221979407,1 44744U 19074AH  26199.73025132  .00022175  00000+0  73121-3 0  9997,2 44744  53.0583 328.1450 0001172 215.8246 144.2676 15.31388900368376
STARLINK-1042,44747,53.0409,0.0001223,15.55940493,398.59121424382465,400.24900471280216,1 44747U 19074AL  26199.22725911  .00014098  00000+0  20605-3 0  9990,2 44747  53.0409 185.4508 0001223  56.0583 304.0543 15.55940493370357
STARLINK-1043,44748,53.0478,0.0002488,15.67446433,364.53401259008206,367.89000065577784,1 44748U 19074AM  26198.61729316  .00039974  00000+0  36545-3 0  9996,2 44748  53.0478 282.0052 0002488   9.6076 350.4987 15.67446433368922
STARLINK-1046,44751,53.0467,0.0003522,15.60583885,383.5870642364125,388.3517007722485,1 44751U 19074AQ  26199.27966011  .00054180  00000+0  64532-3 0  9991,2 44751  53.0467 302.4170 0003522 269.4553  90.6056 15.60583885368698
STARLINK-1047,44752,53.0666,0.00013,15.35630224,458.16036230216014,459.9380307132524,1 44752U 19074AR  26199.32246200  .00024471  00000+0  70492-3 0  9991,2 44752  53.0666 254.4264 0001300 277.9703  82.1151 15.35630224369395
STARLINK-1048,44753,53.0422,0.0001011,15.71504883,353.91469232273266,355.2760508082629,1 44753U 19074AS  26199.53786514  .00034865  00000+0  27044-3 0  9995,2 44753  53.0422 247.8032 0001011 132.1507 227.9596 15.71504883369470
STARLINK-1063,44768,53.1536,0.0003688,15.54112337,402.2326613594505,407.2357071449551,1 44768U 19074BH  26199.87527942  .00060884  00000+0  92152-3 0  9998,2 44768  53.1536 317.5877 0003688 313.7559  46.3146 15.54112337368575
STARLINK-1067,44771,53.0392,0.0007133,15.8488266,311.8797627207423,321.43055321329757,1 44771U 19074BL  26199.62070751  .00084024  00000+0  35161-3 0  9995,2 44771  53.0392 275.8163 0007133 352.9963   7.0959 15.84882660369095
STARLINK-1068,44772,53.0373,0.0006366,15.8211644,320.18959879214344,328.7233407978856,1 44772U 19074BM  26199.80707340  .00064218  00000+0  30785-3 0  9997,2 44772  53.0373 249.1700 0006366   3.4112 356.6952 15.82116440369479
STARLINK-1114,44927,53.0399,0.000128,15.73911784,346.8686995885737,348.5905214408649,1 44927U 20001P   26199.85291740  .00042434  00000+0  29604-3 0  9992,2 44927  53.0399  48.5358 0001280 240.5332 119.5559 15.73911784360594
STARLINK-1123,44930,53.1393,0.0005851,15.64334927,371.20082781292786,379.103526808216,1 44930U 20001S   26199.87194131  .00061397  00000+0  63057-3 0  9993,2 44930  53.1393  78.6003 0005851  95.2325 264.9358 15.64334927360195
STARLINK-1094,44941,53.1493,0.0005459,15.5957375,385.19568585033903,392.58392571689365,1 44941U 20001AD  26199.81828953  .00052051  00000+0  64455-3 0  9995,2 44941  53.1493  55.2290 0005459 117.4413 242.7156 15.59573750360526
STARLINK-1122,44949,53.152,0.0005279,15.59091638,386.7117120886087,393.85781178486104,1 44949U 20001AM  26199.82799184  .00054543  00000+0  68736-3 0  9991,2 44949  53.1520  55.7851 0005279 107.9636 252.1953 15.59091638360513
STARLINK-1080,44961,53.0449,0.0001171,15.71823155,352.8981888531489,354.4747819134245,1 44961U 20001AZ  26199.74698378  .00040988  00000+0  31268-3 0  9997,2 44961  53.0449   9.6107 0001171 214.2027 145.8915 15.71823155361137
STARLINK-1090,44968,53.1467,0.0004225,15.55212135,398.6716373378731,404.4004610644479,1 44968U 20001BG  26199.85402845  .00026554  00000+0  39169-3 0  9999,2 44968  53.1467  44.5230 0004225 114.7883 245.3568 15.55212135360677
STARLINK-1132,45044,53.1488,0.0001793,15.62914838,378.0307231249135,380.4539193495102,1 45044U 20006A   26199.91668980  .00262402  00000+0  27628-2 0  9991,2 45044  53.1488 343.6458 0001793  87.9355 129.0269 15.62914838  5942
STARLINK-1131,45047,53.1542,5.18e-05,15.59602431,388.4563143462683,389.15736972830473,1 45047U 20006D   26199.78058486  .00021051  00000+0  26528-3 0  9995,2 45047  53.1542  18.0759 0000518  74.8769 285.2301 15.59602431356817
STARLINK-1134,45048,53.0234,0.0005209,15.635011,374.0339785877759,381.07205644802525,1 45048U 20006E   26199.72760139  .00024871  00000+0  26857-3 0  9993,2 45048  53.0234 325.7405 0005209 236.5722 123.4794 15.63501100357512
STARLINK-1156,45054,53.1565,0.0003034,15.38388023,448.8036867252922,452.94753157652485,1 45054U 20006L   26199.77191872  .00023739  00000+0  62620-3 0  9997,2 45054  53.1565  29.2038 0003034 123.5731 236.5564 15.38388023356658
STARLINK-1166,45060,53.0435,9.39e-05,15.69330236,360.1809212954431,361.44649623855,1 45060U 20006S   26199.84567637  .00035186  00000+0  29866-3 0  9992,2 45060  53.0435 357.3721 0000939 339.0033  21.0944 15.69330236357088
STARLINK-1169,45061,53.1544,0.0004168,15.42054163,437.2057883470907,442.88942703606244,1 45061U 20006T   26199.77802198  .00030309  00000+0  70553-3 0  9990,2 45061  53.1544  26.7254 0004168 103.0957 257.0515 15.42054163356695
STARLINK-1171,45062,53.0371,0.000251,15.8079732,326.50138433926895,329.86795781815,1 45062U 20006U   26199.71103939  .00061896  00000+0  31590-3 0  9995,2 45062  53.0371 320.0023 0002510 354.5740   5.5253 15.80797320357595
STARLINK-1133,45064,53.1576,0.0003418,15.3826446,448.90702202101784,453.57558502930624,1 45064U 20006W   26199.74516264  .00030140  00000+0  79476-3 0  9992,2 45064  53.1576   6.1280 0003418 133.5150 226.6139 15.38264460356988
STARLINK-1167,45071,53.157,0.0002173,15.41038082,441.5620751653769,444.5265605661216,1 45071U 20006AD  26199.74339564  .00032681  00000+0  78595-3 0  9999,2 45071  53.1570   4.4394 0002173  62.4726 297.6500 15.41038082357000
STARLINK-1168,45072,53.1569,0.0002352,15.38855656,447.8861974171532,451.09791412498816,1 45072U 20006AE  26199.84490985  .00028249  00000+0  73160-3 0  9994,2 45072  53.1569   5.7485 0002352 119.7122 240.4117 15.38855656356996
STARLINK-1172,45074,53.154,0.000195,15.42075371,438.65556055716206,441.3146281739637,1 45074U 20006AG  26199.80347095  .00027233  00000+0  63480-3 0  9991,2 45074  53.1540   3.1835 0001950  85.6748 274.4481 15.42075371357025
STARLINK-1153,45080,53.1576,0.0003643,15.41085295,440.4200948289763,445.3899060304884,1 45080U 20006AN  26199.85491169  .00039320  00000+0  94126-3 0  9996,2 45080  53.1576   3.8169 0003643  72.3038 287.8365 15.41085295357028
STARLINK-1151,45081,53.0418,0.0012323,16.05629729,250.6805087460043,267.0380497758706,1 45081U 20006AP  26199.86196993  .00338356  63716-4  46028-3 0  9992,2 45081  53.0418 302.6899 0012323 338.7527  21.2992 16.05629729357843
STARLINK-1185,45087,53.1576,0.0001034,15.50539781,414.44657939396166,415.8514309398306,1 45087U 20006AV  26199.82335032  .00040468  00000+0  70086-3 0  9990,2 45087  53.1576 341.4672 0001034 155.1698 204.9362 15.50539781357334
STARLINK-1183,45088,53.1566,0.0001933,15.38176867,450.18040258102064,452.8207404661716,1 45088U 20006AW  26199.83705877  .00030194  00000+0  79849-3 0  9991,2 45088  53.1566 350.5379 0001933 159.8326 200.2755 15.38176867357205
STARLINK-1152,45096,53.0313,0.0004034,15.538403,402.7893010543876,408.2623602261483,1 45096U 20006BE  26199.68654144  .00042363  00000+0  65118-3 0  9998,2 45096  53.0313 301.2994 0004034 298.8025  61.2579 15.53840300357851
STARLINK-1184,45098,53.0547,0.0003894,15.16000885,515.2562976909176,520.626963728515,1 45098U 20006BG  26199.76846559  .00013480  00000+0  70803-3 0  9997,2 45098  53.0547  10.6992 0003894 153.7519 206.3672 15.16000885356884
STARLINK-1193,45100,53.0457,0.0003822,15.72180386,350.0941964695685,355.2392228252229,1 45100U 20006BJ  26199.70200485  .00038188  00000+0  28731-3 0  9992,2 45100  53.0457 307.5595 0003822  59.6656 300.4739 15.72180386357767
STARLINK-1143,45179,53.0264,0.0008977,16.17835108,219.50829257874466,231.36434811809795,1 45179U 20012B   26199.76765720  .00817410  11756-4  48350-3 0  9996,2 45179  53.0264  29.0960 0008977 283.8706  76.1332 16.17835108356689
STARLINK-1202,45183,53.1539,0.0004286,15.37825359,449.61362484229176,455.46888224122813,1 45183U 20012F   26199.13770861  .00022671  00000+0  60949-3 0  9994,2 45183  53.1539 150.6296 0004286  42.7645 317.3692 15.37825359354962
STARLINK-1216,45185,53.1541,0.0001749,15.3994852,445.06781813902853,447.4549927012449,1 45185U 20012H   26199.91668980  .00057961  00000+0  14325-2 0  9996,2 45185  53.1541 146.7034 0001749  83.8239  90.4341 15.39948520  5678
STARLINK-1225,45187,53.1536,0.0005006,15.38353627,447.55874721968576,454.3960565588577,1 45187U 20012K   26199.88468899  .00029481  00000+0  77528-3 0  9992,2 45187  53.1536 147.3265 0005006  46.3242 313.8177 15.38353627355062
STARLINK-1230,45189,53.1539,0.0004759,15.38234794,448.0789667418512,454.5792525850293,1 45189U 20012M   26199.57468097  .00027019  00000+0  71441-3 0  9993,2 45189  53.1539 148.8936 0004759  45.7796 314.3598 15.38234794352242
